{"type": "FeatureCollection", "features": [ {"type": "Feature", "properties": {"norad_id": 32086, "name": "FENGYUN 1C DEB", "group": "fengyun-1c-debris", "lat": 37.08679681662911, "lon": -129.45662607108457, "alt_km": 783.1138095963815, "timestamp": "2025-12-14T14:39:29.655676+00:00", "meta": {"OBJECT_NAME": "FENGYUN 1C DEB", "OBJECT_ID": "1999-025CQC", "EPOCH": "2025-12-08T22:54:23.642784", "MEAN_MOTION": 13.68864745, "ECCENTRICITY": 0.0300639, "INCLINATION": 99.2693, "RA_OF_ASC_NODE": 38.0068, "ARG_OF_PERICENTER": 145.3801, "MEAN_ANOMALY": 216.7328, "EPHEMERIS_TYPE": 0, "CLASSIFICATION_TYPE": "U", "NORAD_CAT_ID": 32086, "ELEMENT_SET_NO": 999, "REV_AT_EPOCH": 61729, "BSTAR": 0.0024856, "MEAN_MOTION_DOT": 2.899e-05, "MEAN_MOTION_DDOT": 0}, "tle": {"line1": "1 32086U 99025CQC 25342.95444031  .00002899  00000+0  24856-2 0  9994", "line2": "2 32086  99.2693  38.0068 0300639 145.3801 216.7328 13.68864745617293"}}, "geometry": {"type": "Point", "coordinates": [-129.45662607108457, 37.08679681662911]}}, {"type": "Feature", "properties": {"norad_id": 32088, "name": "FENGYUN 1C DEB", "group": "fengyun-1c-debris", "lat": -30.238580316940904, "lon": -137.67372174942142, "alt_km": 849.9679194801465, "timestamp": "2025-12-14T14:39:29.655690+00:00", "meta": {"OBJECT_NAME": "FENGYUN 1C DEB", "OBJECT_ID": "1999-025CQE", "EPOCH": "2025-12-10T09:20:21.764256", "MEAN_MOTION": 13.25167395, "ECCENTRICITY": 0.04614879, "INCLINATION": 102.3999, "RA_OF_ASC_NODE": 209.9224, "ARG_OF_PERICENTER": 2.0508, "MEAN_ANOMALY": 358.2365, "EPHEMERIS_TYPE": 0, "CLASSIFICATION_TYPE": "U", "NORAD_CAT_ID": 32088, "ELEMENT_SET_NO": 999, "REV_AT_EPOCH": 59813, "BSTAR": 0.0045517197, "MEAN_MOTION_DOT": 3.447e-05, "MEAN_MOTION_DDOT": 0}, "tle": {"line1": "1 32088U 99025CQE 25344.38914079  .00003447  00000+0  45517-2 0  9996", "line2": "2 32088 102.3999 209.9224 0461487   2.0508 358.2365 13.25167395598139"}}, "geometry": {"type": "Point", "coordinates": [-137.67372174942142, -30.238580316940904]}}, {"type": "Feature", "properties": {"norad_id": 32089, "name": "FENGYUN 1C DEB", "group": "fengyun-1c-debris", "lat": -54.95618083311807, "lon": 6.669719364132374, "alt_km": 933.2650380914856, "timestamp": "2025-12-14T14:39:29.655702+00:00", "meta": {"OBJECT_NAME": "FENGYUN 1C DEB", "OBJECT_ID": "1999-025CQF", "EPOCH": "2025-12-12T06:53:11.826816", "MEAN_MOTION": 14.14067059, "ECCENTRICITY": 0.01123779, "INCLINATION": 98.6547, "RA_OF_ASC_NODE": 351.8762, "ARG_OF_PERICENTER": 125.2996, "MEAN_ANOMALY": 235.875, "EPHEMERIS_TYPE": 0, "CLASSIFICATION_TYPE": "U", "NORAD_CAT_ID": 32089, "ELEMENT_SET_NO": 999, "REV_AT_EPOCH": 63209, "BSTAR": 0.00077843034, "MEAN_MOTION_DOT": 1.532e-05, "MEAN_MOTION_DDOT": 0}, "tle": {"line1": "1 32089U 99025CQF 25346.28694244  .00001532  00000+0  77843-3 0  9998", "line2": "2 32089  98.6547 351.8762 0112377 125.2996 235.8750 14.14067059632097"}}, "geometry": {"type": "Point", "coordinates": [6.669719364132374, -54.95618083311807]}}, {"type": "Feature", "properties": {"norad_id": 32093, "name": "FENGYUN 1C DEB", "group": "fengyun-1c-debris", "lat": 1.6085099308259763, "lon": -158.73852759028446, "alt_km": 713.9426116478198, "timestamp": "2025-12-14T14:39:29.655712+00:00", "meta": {"OBJECT_NAME": "FENGYUN 1C DEB", "OBJECT_ID": "1999-025CQK", "EPOCH": "2025-12-12T00:50:48.937632", "MEAN_MOTION": 14.37603697, "ECCENTRICITY": 0.00794334, "INCLINATION": 98.9197, "RA_OF_ASC_NODE": 198.8432, "ARG_OF_PERICENTER": 355.6405, "MEAN_ANOMALY": 4.4079, "EPHEMERIS_TYPE": 0, "CLASSIFICATION_TYPE": "U", "NORAD_CAT_ID": 32093, "ELEMENT_SET_NO": 999, "REV_AT_EPOCH": 96507, "BSTAR": 0.00063485421, "MEAN_MOTION_DOT": 1.927e-05, "MEAN_MOTION_DDOT": 0}, "tle": {"line1": "1 32093U 99025CQK 25346.03528863  .00001927  00000+0  63485-3 0  9994", "line2": "2 32093  98.9197 198.8432 0079433 355.6405   4.4079 14.37603697965078"}}, "geometry": {"type": "Point", "coordinates": [-158.73852759028446, 1.6085099308259763]}}, {"type": "Feature", "properties": {"norad_id": 32094, "name": "FENGYUN 1C DEB", "group": "fengyun-1c-debris", "lat": -31.959746942589483, "lon": -15.516526710788652, "alt_km": 852.1506625762458, "timestamp": "2025-12-14T14:39:29.655722+00:00", "meta": {"OBJECT_NAME": "FENGYUN 1C DEB", "OBJECT_ID": "1999-025CQL", "EPOCH": "2025-12-11T22:07:39.581760", "MEAN_MOTION": 14.10725237, "ECCENTRICITY": 0.0034065, "INCLINATION": 98.7447, "RA_OF_ASC_NODE": 336.3568, "ARG_OF_PERICENTER": 270.97, "MEAN_ANOMALY": 88.7568, "EPHEMERIS_TYPE": 0, "CLASSIFICATION_TYPE": "U", "NORAD_CAT_ID": 32094, "ELEMENT_SET_NO": 999, "REV_AT_EPOCH": 94353, "BSTAR": 0.00058116, "MEAN_MOTION_DOT": 1.001e-05, "MEAN_MOTION_DDOT": 0}, "tle": {"line1": "1 32094U 99025CQL 25345.92198590  .00001001  00000+0  58116-3 0  9990", "line2": "2 32094  98.7447 336.3568 0034065 270.9700  88.7568 14.10725237943534"}}, "geometry": {"type": "Point", "coordinates": [-15.516526710788652, -31.959746942589483]}}, {"type": "Feature", "properties": {"norad_id": 32095, "name": "FENGYUN 1C DEB", "group": "fengyun-1c-debris", "lat": 3.774241476699665, "lon": -175.25547763629183, "alt_km": 839.993719943076, "timestamp": "2025-12-14T14:39:29.655733+00:00", "meta": {"OBJECT_NAME": "FENGYUN 1C DEB", "OBJECT_ID": "1999-025CQM", "EPOCH": "2025-12-12T19:26:32.834400", "MEAN_MOTION": 14.16039687, "ECCENTRICITY": 0.00791307, "INCLINATION": 98.6414, "RA_OF_ASC_NODE": 2.4228, "ARG_OF_PERICENTER": 91.9569, "MEAN_ANOMALY": 269.067, "EPHEMERIS_TYPE": 0, "CLASSIFICATION_TYPE": "U", "NORAD_CAT_ID": 32095, "ELEMENT_SET_NO": 999, "REV_AT_EPOCH": 94818, "BSTAR": 0.0004066223, "MEAN_MOTION_DOT": 7.85e-06, "MEAN_MOTION_DDOT": 0}, "tle": {"line1": "1 32095U 99025CQM 25346.81010225  .00000785  00000+0  40662-3 0  9993", "line2": "2 32095  98.6414   2.4228 0079130  91.9569 269.0670 14.16039687948185"}}, "geometry": {"type": "Point", "coordinates": [-175.25547763629183, 3.774241476699665]}}, {"type": "Feature", "properties": {"norad_id": 32096, "name": "FENGYUN 1C DEB", "group": "fengyun-1c-debris", "lat": 27.043815144201588, "lon": -157.76179411893295, "alt_km": 832.9422410356701, "timestamp": "2025-12-14T14:39:29.655743+00:00", "meta": {"OBJECT_NAME": "FENGYUN 1C DEB", "OBJECT_ID": "1999-025CQN", "EPOCH": "2025-12-11T13:23:11.364288", "MEAN_MOTION": 13.90183528, "ECCENTRICITY": 0.01345891, "INCLINATION": 99.0751, "RA_OF_ASC_NODE": 14.5789, "ARG_OF_PERICENTER": 143.12, "MEAN_ANOMALY": 217.9308, "EPHEMERIS_TYPE": 0, "CLASSIFICATION_TYPE": "U", "NORAD_CAT_ID": 32096, "ELEMENT_SET_NO": 999, "REV_AT_EPOCH": 92845, "BSTAR": 0.0016952038, "MEAN_MOTION_DOT": 2.214e-05, "MEAN_MOTION_DDOT": 0}, "tle": {"line1": "1 32096U 99025CQN 25345.55777042  .00002214  00000+0  16952-2 0  9994", "line2": "2 32096  99.0751  14.5789 0134589 143.1200 217.9308 13.90183528928456"}}, "geometry": {"type": "Point", "coordinates": [-157.76179411893295, 27.043815144201588]}}, {"type": "Feature", "properties": {"norad_id": 32098, "name": "FENGYUN 1C DEB", "group": "fengyun-1c-debris", "lat": 31.592616255124753, "lon": -24.341733694180153, "alt_km": 801.0708429469078, "timestamp": "2025-12-14T14:39:29.655753+00:00", "meta": {"OBJECT_NAME": "FENGYUN 1C DEB", "OBJECT_ID": "1999-025CQQ", "EPOCH": "2025-12-12T16:51:19.978848", "MEAN_MOTION": 14.20256879, "ECCENTRICITY": 0.01958299, "INCLINATION": 98.6122, "RA_OF_ASC_NODE": 339.1471, "ARG_OF_PERICENTER": 119.9252, "MEAN_ANOMALY": 242.1533, "EPHEMERIS_TYPE": 0, "CLASSIFICATION_TYPE": "U", "NORAD_CAT_ID": 32098, "ELEMENT_SET_NO": 999, "REV_AT_EPOCH": 64227, "BSTAR": 0.00038968916, "MEAN_MOTION_DOT": 9.67e-06, "MEAN_MOTION_DDOT": 0}, "tle": {"line1": "1 32098U 99025CQQ 25346.70231457  .00000967  00000+0  38969-3 0  9995", "line2": "2 32098  98.6122 339.1471 0195829 119.9252 242.1533 14.20256879642278"}}, "geometry": {"type": "Point", "coordinates": [-24.341733694180153, 31.592616255124753]}}, {"type": "Feature", "properties": {"norad_id": 32099, "name": "FENGYUN 1C DEB", "group": "fengyun-1c-debris", "lat": -33.08596442231024, "lon": -34.30064553278588, "alt_km": 785.423816194515, "timestamp": "2025-12-14T14:39:29.655763+00:00", "meta": {"OBJECT_NAME": "FENGYUN 1C DEB", "OBJECT_ID": "1999-025CQR", "EPOCH": "2025-12-13T04:24:17.454240", "MEAN_MOTION": 13.91776468, "ECCENTRICITY": 0.0342884, "INCLINATION": 98.2818, "RA_OF_ASC_NODE": 318.9761, "ARG_OF_PERICENTER": 273.816, "MEAN_ANOMALY": 102.5607, "EPHEMERIS_TYPE": 0, "CLASSIFICATION_TYPE": "U", "NORAD_CAT_ID": 32099, "ELEMENT_SET_NO": 999, "REV_AT_EPOCH": 64694, "BSTAR": 0.001759049, "MEAN_MOTION_DOT": 3.576e-05, "MEAN_MOTION_DDOT": 0}, "tle": {"line1": "1 32099U 99025CQR 25347.18353535  .00003576  00000+0  17590-2 0  9996", "line2": "2 32099  98.2818 318.9761 0342884 273.8160 102.5607 13.91776468646944"}}, "geometry": {"type": "Point", "coordinates": [-34.30064553278588, -33.08596442231024]}}, {"type": "Feature", "properties": {"norad_id": 32101, "name": "FENGYUN 1C DEB", "group": "fengyun-1c-debris", "lat": 64.84953405459723, "lon": 87.45223161380457, "alt_km": 924.8429772127311, "timestamp": "2025-12-14T14:39:29.655774+00:00", "meta": {"OBJECT_NAME": "FENGYUN 1C DEB", "OBJECT_ID": "1999-025CQT", "EPOCH": "2025-12-13T12:24:33.747264", "MEAN_MOTION": 14.01656549, "ECCENTRICITY": 0.01207052, "INCLINATION": 99.0315, "RA_OF_ASC_NODE": 246.5686, "ARG_OF_PERICENTER": 236.6442, "MEAN_ANOMALY": 122.3123, "EPHEMERIS_TYPE": 0, "CLASSIFICATION_TYPE": "U", "NORAD_CAT_ID": 32101, "ELEMENT_SET_NO": 999, "REV_AT_EPOCH": 93193, "BSTAR": 0.0024904668, "MEAN_MOTION_DOT": 3.979e-05, "MEAN_MOTION_DDOT": 0}, "tle": {"line1": "1 32101U 99025CQT 25347.51705726  .00003979  00000+0  24905-2 0  9995", "line2": "2 32101  99.0315 246.5686 0120705 236.6442 122.3123 14.01656549931935"}}, "geometry": {"type": "Point", "coordinates": [87.45223161380457, 64.84953405459723]}}]}